{
  "type": "FeatureCollection",
  "features": [
    {
      "type": "Feature",
      "properties": {
        "norad_id": 33765,
        "name": "COSMOS 2251 DEB",
        "group": "cosmos-2251-debris",
        "lat": 72.43485178204324,
        "lon": -116.70685436250167,
        "alt_km": 574.9080354891221,
        "timestamp": "2025-12-10T04:57:30.014332+00:00",
        "meta_object_name": "COSMOS 2251 DEB",
        "meta_object_id": "1993-036N",
        "meta_epoch": "2025-12-09T19:05:52.957248",
        "meta_mean_motion": 15.0970083,
        "meta_eccentricity": 0.0066106,
        "meta_inclination": 74.0091,
        "meta_ra_of_asc_node": 179.193,
        "meta_arg_of_pericenter": 271.8889,
        "meta_mean_anomaly": 98.6922,
        "meta_ephemeris_type": 0,
        "meta_classification_type": "U",
        "meta_norad_cat_id": 33765,
        "meta_element_set_no": 999,
        "meta_rev_at_epoch": 89574,
        "meta_bstar": 0.0024896,
        "meta_mean_motion_dot": 0.00042456,
        "meta_mean_motion_ddot": 0,
        "tle_line1": "1 33765U 93036N   25343.79575182  .00042456  00000+0  24896-2 0  9997",
        "tle_line2": "2 33765  74.0091 179.1930 0066106 271.8889  98.6922 15.09700830895741"
      },
      "geometry": {
        "type": "Point",
        "coordinates": [
          -116.70685436250167,
          72.43485178204324
        ]
      }
    },
    {
      "type": "Feature",
      "properties": {
        "norad_id": 33766,
        "name": "COSMOS 2251 DEB",
        "group": "cosmos-2251-debris",
        "lat": -69.78863800277861,
        "lon": 9.920521365552924,
        "alt_km": 779.1213078634146,
        "timestamp": "2025-12-10T04:57:30.014343+00:00",
        "meta_object_name": "COSMOS 2251 DEB",
        "meta_object_id": "1993-036P",
        "meta_epoch": "2025-12-09T12:41:59.239104",
        "meta_mean_motion": 14.34919699,
        "meta_eccentricity": 0.0063985,
        "meta_inclination": 74.1856,
        "meta_ra_of_asc_node": 140.8091,
        "meta_arg_of_pericenter": 345.0925,
        "meta_mean_anomaly": 14.8339,
        "meta_ephemeris_type": 0,
        "meta_classification_type": "U",
        "meta_norad_cat_id": 33766,
        "meta_element_set_no": 999,
        "meta_rev_at_epoch": 87699,
        "meta_bstar": 0.00081165,
        "meta_mean_motion_dot": 2.337e-05,
        "meta_mean_motion_ddot": 0,
        "tle_line1": "1 33766U 93036P   25343.52915786  .00002337  00000+0  81165-3 0  9994",
        "tle_line2": "2 33766  74.1856 140.8091 0063985 345.0925  14.8339 14.34919699876992"
      },
      "geometry": {
        "type": "Point",
        "coordinates": [
          9.920521365552924,
          -69.78863800277861
        ]
      }
    },
    {
      "type": "Feature",
      "properties": {
        "norad_id": 33768,
        "name": "COSMOS 2251 DEB",
        "group": "cosmos-2251-debris",
        "lat": 14.346186682720209,
        "lon": 39.76679421900139,
        "alt_km": 1254.2304080813437,
        "timestamp": "2025-12-10T04:57:30.014353+00:00",
        "meta_object_name": "COSMOS 2251 DEB",
        "meta_object_id": "1993-036R",
        "meta_epoch": "2025-12-09T11:19:56.912736",
        "meta_mean_motion": 13.58450802,
        "meta_eccentricity": 0.03661591,
        "meta_inclination": 74.0686,
        "meta_ra_of_asc_node": 225.1408,
        "meta_arg_of_pericenter": 23.5977,
        "meta_mean_anomaly": 148.5343,
        "meta_ephemeris_type": 0,
        "meta_classification_type": "U",
        "meta_norad_cat_id": 33768,
        "meta_element_set_no": 999,
        "meta_rev_at_epoch": 83251,
        "meta_bstar": 0.00056531478,
        "meta_mean_motion_dot": 6.17e-06,
        "meta_mean_motion_ddot": 0,
        "tle_line1": "1 33768U 93036R   25343.47218649  .00000617  00000+0  56531-3 0  9992",
        "tle_line2": "2 33768  74.0686 225.1408 0366159  23.5977 148.5343 13.58450802832518"
      },
      "geometry": {
        "type": "Point",
        "coordinates": [
          39.76679421900139,
          14.346186682720209
        ]
      }
    },
    {
      "type": "Feature",
      "properties": {
        "norad_id": 33779,
        "name": "COSMOS 2251 DEB",
        "group": "cosmos-2251-debris",
        "lat": -72.70922931643857,
        "lon": 108.84659103589487,
        "alt_km": 662.216431228364,
        "timestamp": "2025-12-10T04:57:30.014363+00:00",
        "meta_object_name": "COSMOS 2251 DEB",
        "meta_object_id": "1993-036U",
        "meta_epoch": "2025-12-09T13:08:57.772032",
        "meta_mean_motion": 14.70332632,
        "meta_eccentricity": 0.0017221,
        "meta_inclination": 74.0448,
        "meta_ra_of_asc_node": 176.9109,
        "meta_arg_of_pericenter": 210.8307,
        "meta_mean_anomaly": 180.4936,
        "meta_ephemeris_type": 0,
        "meta_classification_type": "U",
        "meta_norad_cat_id": 33779,
        "meta_element_set_no": 999,
        "meta_rev_at_epoch": 88481,
        "meta_bstar": 0.0021834,
        "meta_mean_motion_dot": 0.00013219,
        "meta_mean_motion_ddot": 0,
        "tle_line1": "1 33779U 93036U   25343.54789088  .00013219  00000+0  21834-2 0  9991",
        "tle_line2": "2 33779  74.0448 176.9109 0017221 210.8307 180.4936 14.70332632884816"
      },
      "geometry": {
        "type": "Point",
        "coordinates": [
          108.84659103589487,
          -72.70922931643857
        ]
      }
    },
    {
      "type": "Feature",
      "properties": {
        "norad_id": 33782,
        "name": "COSMOS 2251 DEB",
        "group": "cosmos-2251-debris",
        "lat": -47.37062487212795,
        "lon": -95.88868321627236,
        "alt_km": 751.7626413313856,
        "timestamp": "2025-12-10T04:57:30.014374+00:00",
        "meta_object_name": "COSMOS 2251 DEB",
        "meta_object_id": "1993-036X",
        "meta_epoch": "2025-12-09T13:03:54.052704",
        "meta_mean_motion": 14.40434503,
        "meta_eccentricity": 0.0020644,
        "meta_inclination": 74.0339,
        "meta_ra_of_asc_node": 283.4561,
        "meta_arg_of_pericenter": 348.7434,
        "meta_mean_anomaly": 128.9341,
        "meta_ephemeris_type": 0,
        "meta_classification_type": "U",
        "meta_norad_cat_id": 33782,
        "meta_element_set_no": 999,
        "meta_rev_at_epoch": 88080,
        "meta_bstar": 0.00079266,
        "meta_mean_motion_dot": 2.499e-05,
        "meta_mean_motion_ddot": 0,
        "tle_line1": "1 33782U 93036X   25343.54437561  .00002499  00000+0  79266-3 0  9992",
        "tle_line2": "2 33782  74.0339 283.4561 0020644 348.7434 128.9341 14.40434503880809"
      },
      "geometry": {
        "type": "Point",
        "coordinates": [
          -95.88868321627236,
          -47.37062487212795
        ]
      }
    },
    {
      "type": "Feature",
      "properties": {
        "norad_id": 33785,
        "name": "COSMOS 2251 DEB",
        "group": "cosmos-2251-debris",
        "lat": -63.80208724980374,
        "lon": -79.07041095680881,
        "alt_km": 673.3676006661126,
        "timestamp": "2025-12-10T04:57:30.014388+00:00",
        "meta_object_name": "COSMOS 2251 DEB",
        "meta_object_id": "1993-036AA",
        "meta_epoch": "2025-12-09T08:32:13.897824",
        "meta_mean_motion": 14.70359176,
        "meta_eccentricity": 0.00220118,
        "meta_inclination": 73.8675,
        "meta_ra_of_asc_node": 66.5615,
        "meta_arg_of_pericenter": 6.6049,
        "meta_mean_anomaly": 60.5006,
        "meta_ephemeris_type": 0,
        "meta_classification_type": "U",
        "meta_norad_cat_id": 33785,
        "meta_element_set_no": 999,
        "meta_rev_at_epoch": 88457,
        "meta_bstar": 0.0027575474,
        "meta_mean_motion_dot": 0.00016745,
        "meta_mean_motion_ddot": 0,
        "tle_line1": "1 33785U 93036AA  25343.35571641  .00016745  00000+0  27575-2 0  9996",
        "tle_line2": "2 33785  73.8675  66.5615 0022011   6.6049  60.5006 14.70359176884576"
      },
      "geometry": {
        "type": "Point",
        "coordinates": [
          -79.07041095680881,
          -63.80208724980374
        ]
      }
    },
    {
      "type": "Feature",
      "properties": {
        "norad_id": 33789,
        "name": "COSMOS 2251 DEB",
        "group": "cosmos-2251-debris",
        "lat": 74.0107516560139,
        "lon": 177.29772719019678,
        "alt_km": 1007.6749168514425,
        "timestamp": "2025-12-10T04:57:30.014398+00:00",
        "meta_object_name": "COSMOS 2251 DEB",
        "meta_object_id": "1993-036AE",
        "meta_epoch": "2025-12-09T18:54:35.595936",
        "meta_mean_motion": 13.88785884,
        "meta_eccentricity": 0.0240299,
        "meta_inclination": 74.065,
        "meta_ra_of_asc_node": 92.4158,
        "meta_arg_of_pericenter": 208.7026,
        "meta_mean_anomaly": 310.0483,
        "meta_ephemeris_type": 0,
        "meta_classification_type": "U",
        "meta_norad_cat_id": 33789,
        "meta_element_set_no": 999,
        "meta_rev_at_epoch": 85054,
        "meta_bstar": 0.0014143,
        "meta_mean_motion_dot": 2.127e-05,
        "meta_mean_motion_ddot": 0,
        "tle_line1": "1 33789U 93036AE  25343.78791199  .00002127  00000+0  14143-2 0  9995",
        "tle_line2": "2 33789  74.0650  92.4158 0240299 208.7026 310.0483 13.88785884850545"
      },
      "geometry": {
        "type": "Point",
        "coordinates": [
          177.29772719019678,
          74.0107516560139
        ]
      }
    }
  ]
}